      2.10          N: GNSS NAV DATA                        RINEX VERSION / TYPE
fic2rin                                 12/26/2018 00:20:18 PGM / RUN BY / DATE
                                                            END OF HEADER
31 18 12 25  3 59 44.0 7.047969847918e-05-2.614797267597e-12 0.000000000000e+00
    7.000000000000e+00 1.750000000000e+00 4.570190366773e-09-1.112890189395e+00
   -1.937150955200e-07 9.137347689830e-03 9.324401617050e-06 5.153799488068e+03
    1.871840000000e+05 5.587935447693e-08 2.942731297028e+00-1.192092895508e-07
    9.616014921848e-01 1.960000000000e+02-4.781228094484e-02-7.922472859938e-09
   -4.778770483544e-10 1.000000000000e+00 2.033000000000e+03 0.000000000000e+00
    2.400000000000e+00 0.000000000000e+00-1.350417733192e-08 7.000000000000e+00
    1.819560000000e+05 4.000000000000e+00
 8 18 12 25  3 59 44.0-1.267446205020e-04-1.250555214938e-12 0.000000000000e+00
    1.900000000000e+01 5.828125000000e+01 4.775198906202e-09 2.451118564481e+00
    3.123655915260e-06 4.005272174254e-03-2.235174179077e-08 5.153672140121e+03
    1.871840000000e+05 1.117587089539e-08-1.288732540220e+00 1.005828380585e-07
    9.697943981151e-01 3.848125000000e+02-4.034887915677e-01-8.564285308288e-09
    1.517920370333e-10 1.000000000000e+00 2.033000000000e+03 0.000000000000e+00
    2.400000000000e+00 0.000000000000e+00 5.122274160385e-09 1.900000000000e+01
    1.828560000000e+05 4.000000000000e+00
19 18 12 25  3 59 44.0-3.703990951180e-04 3.865352482535e-12 0.000000000000e+00
    1.100000000000e+01 2.981250000000e+01 4.400183285296e-09-1.460041676573e+00
    1.810491085052e-06 9.387862868607e-03 5.811452865601e-07 5.153612863541e+03
    1.871840000000e+05 7.636845111847e-08-1.176703897549e+00 2.440065145493e-07
    9.811921757354e-01 3.781562500000e+02 1.326098130476e+00-8.314989209819e-09
    7.321733551020e-11 1.000000000000e+00 2.033000000000e+03 0.000000000000e+00
    2.400000000000e+00 0.000000000000e+00-1.536682248116e-08 1.100000000000e+01
    1.839360000000e+05 4.000000000000e+00
18 18 12 25  3 59 44.0 8.992850780487e-06 3.979039320257e-12 0.000000000000e+00
    1.500000000000e+01-1.471875000000e+02 4.853059292256e-09-3.276426655979e-01
   -7.642433047295e-06 1.496714202221e-02 5.399808287621e-06 5.153614389420e+03
    1.871840000000e+05-1.285225152969e-07-2.744420360467e-01 1.657754182816e-07
    9.525890931936e-01 2.710937500000e+02 1.365587792933e+00-8.691076303928e-09
   -3.210848030423e-10 1.000000000000e+00 2.033000000000e+03 0.000000000000e+00
    2.400000000000e+00 0.000000000000e+00-6.519258022308e-09 1.500000000000e+01
    1.846860000000e+05 4.000000000000e+00
23 18 12 25  3 59 44.0-2.025528810918e-04 1.136868377216e-12 0.000000000000e+00
    0.000000000000e+00 1.559375000000e+01 5.381652738867e-09 6.581767448919e-01
    9.853392839432e-07 1.265210215934e-02 5.841255187988e-06 5.153659206390e+03
    1.871840000000e+05-1.769512891769e-07 1.848912810754e+00 1.322478055954e-07
    9.428541501856e-01 2.592187500000e+02-2.312069677131e+00-8.528212377134e-09
    1.775073938955e-10 1.000000000000e+00 2.033000000000e+03 0.000000000000e+00
    2.400000000000e+00 0.000000000000e+00-2.002343535423e-08 0.000000000000e+00
    1.864560000000e+05 4.000000000000e+00
 8 18 12 25  5 59 44.0-1.267539337277e-04-1.250555214938e-12 0.000000000000e+00
    4.100000000000e+01 5.712500000000e+01 4.689481049995e-09-2.781917407078e+00
    3.116205334663e-06 4.005283932202e-03 1.471489667892e-07 5.153672138214e+03
    1.943840000000e+05-4.097819328308e-08-1.288794244642e+00-3.725290298462e-08
    9.697962370031e-01 3.831250000000e+02-4.034546060981e-01-8.447851886940e-09
    2.225092684042e-10 1.000000000000e+00 2.033000000000e+03 0.000000000000e+00
    2.400000000000e+00 0.000000000000e+00 5.122274160385e-09 4.100000000000e+01
    1.872060000000e+05 4.000000000000e+00
23 18 12 25  5 59 44.0-2.025449648499e-04 1.136868377216e-12 0.000000000000e+00
    9.000000000000e+00 1.656250000000e+01 5.415582723615e-09 1.708377171464e+00
    7.543712854385e-07 1.265217654873e-02 6.038695573807e-06 5.153659160614e+03
    1.943840000000e+05-2.682209014893e-07 1.848851223366e+00-3.539025783539e-08
    9.428555399578e-01 2.582500000000e+02-2.312073874243e+00-8.451780622016e-09
    2.078658013021e-10 1.000000000000e+00 2.033000000000e+03 0.000000000000e+00
    2.400000000000e+00 0.000000000000e+00-2.002343535423e-08 9.000000000000e+00
    1.872060000000e+05 4.000000000000e+00
19 18 12 25  5 59 44.0-3.703706897795e-04 3.865352482535e-12 0.000000000000e+00
    1.200000000000e+01 3.365625000000e+01 4.495901558060e-09-4.098336340502e-01
    1.857057213783e-06 9.388157632202e-03 8.530914783478e-07 5.153613039017e+03
    1.943840000000e+05-1.303851604462e-07-1.176765436661e+00 3.725290298462e-08
    9.811917675812e-01 3.757500000000e+02 1.326108381143e+00-8.586429087808e-09
    1.392915163365e-10 1.000000000000e+00 2.033000000000e+03 0.000000000000e+00
    2.400000000000e+00 0.000000000000e+00-1.536682248116e-08 1.200000000000e+01
    1.872060000000e+05 4.000000000000e+00
18 18 12 25  5 59 44.0 9.021256119013e-06 3.979039320257e-12 0.000000000000e+00
    1.600000000000e+01-1.435625000000e+02 4.885560646068e-09 7.225930860567e-01
   -7.517635822296e-06 1.496716914698e-02 5.578622221947e-06 5.153614337921e+03
    1.943840000000e+05-2.123415470123e-07-2.745041413079e-01 6.332993507385e-08
    9.525864233681e-01 2.711562500000e+02 1.365571155166e+00-8.666789578002e-09
   -3.982308736286e-10 1.000000000000e+00 2.033000000000e+03 0.000000000000e+00
    2.400000000000e+00 0.000000000000e+00-6.519258022308e-09 1.600000000000e+01
    1.872060000000e+05 4.000000000000e+00
31 18 12 25  5 59 44.0 7.046060636640e-05-2.614797267597e-12 0.000000000000e+00
    8.000000000000e+00-4.375000000000e+00 4.513045129302e-09-6.274419507900e-02
   -1.396983861923e-07 9.138344554231e-03 9.108334779739e-06 5.153801477432e+03
    1.943840000000e+05 1.136213541031e-07 2.942674348553e+00 1.303851604462e-08
    9.615973492008e-01 2.014687500000e+02-4.785472312416e-02-8.037834808083e-09
   -5.503800683962e-10 1.000000000000e+00 2.033000000000e+03 0.000000000000e+00
    2.400000000000e+00 0.000000000000e+00-1.350417733192e-08 8.000000000000e+00
    1.872060000000e+05 4.000000000000e+00
 2 18 12 25  6  0  0.0-9.501585736871e-05-1.023181539495e-11 0.000000000000e+00
    4.600000000000e+01-1.438437500000e+02 4.779127641278e-09 1.265490616489e+00
   -7.778406143188e-06 1.864319399465e-02 5.220994353294e-06 5.153624568939e+03
    1.944000000000e+05-2.905726432800e-07-2.882483693073e-01-2.551823854446e-07
    9.532089315838e-01 2.836562500000e+02-1.799932418981e+00-8.551784787591e-09
   -3.532289991199e-10 1.000000000000e+00 2.033000000000e+03 0.000000000000e+00
    2.400000000000e+00 0.000000000000e+00-2.048909664154e-08 4.600000000000e+01
    1.872060000000e+05 4.000000000000e+00
 1 18 12 25  6  0  0.0-1.343186013401e-04-6.025402399246e-12 0.000000000000e+00
    7.100000000000e+01-1.516562500000e+02 4.302322066126e-09 9.343151675770e-01
   -7.720664143562e-06 8.242770098150e-03 6.163492798805e-06 5.153668354034e+03
    1.944000000000e+05-2.048909664154e-08-2.227309101850e-01 1.303851604462e-07
    9.741372006331e-01 2.672187500000e+02 6.914721576537e-01-8.233914404157e-09
   -4.328751738457e-10 1.000000000000e+00 2.033000000000e+03 0.000000000000e+00
    2.400000000000e+00 0.000000000000e+00 5.587935447693e-09 7.100000000000e+01
    1.872060000000e+05 4.000000000000e+00
 5 18 12 25  6  0  0.0 5.457550287247e-07 2.273736754432e-13 0.000000000000e+00
    1.100000000000e+01-5.287500000000e+01 4.543046378974e-09-2.434620641894e+00
   -2.745538949966e-06 5.586259532720e-03 1.143664121628e-05 5.153600334167e+03
    1.944000000000e+05 6.332993507385e-08 7.946823067364e-01-3.725290298462e-08
    9.489472727429e-01 1.536562500000e+02 7.238954049893e-01-7.819611432489e-09
    4.532331646948e-10 1.000000000000e+00 2.033000000000e+03 0.000000000000e+00
    2.400000000000e+00 0.000000000000e+00-1.117587089539e-08 1.100000000000e+01
    1.872060000000e+05 4.000000000000e+00
 6 18 12 25  6  0  0.0 3.099697642028e-04-7.162270776462e-12 0.000000000000e+00
    8.000000000000e+01-1.507500000000e+02 4.200889269614e-09 1.240209633652e+00
   -7.929280400276e-06 1.261935685761e-03 5.370005965233e-06 5.153770765305e+03
    1.944000000000e+05 2.421438694000e-08-2.310251846348e-01 1.490116119385e-08
    9.738144223881e-01 2.831562500000e+02-1.209748308679e+00-8.118195298277e-09
   -3.618007847406e-10 1.000000000000e+00 2.033000000000e+03 0.000000000000e+00
    2.400000000000e+00 0.000000000000e+00 4.656612873077e-09 8.000000000000e+01
    1.872060000000e+05 4.000000000000e+00
 3 18 12 25  6  0  0.0 1.723249442875e-04 2.955857780762e-12 0.000000000000e+00
    8.500000000000e+01-4.946875000000e+01 4.300179119721e-09-1.637292545406e-01
   -2.611428499222e-06 1.887144637294e-03 1.250021159649e-05 5.153619077682e+03
    1.944000000000e+05 0.000000000000e+00 8.194178083836e-01 5.960464477539e-08
    9.620482293303e-01 1.370312500000e+02 6.988382544698e-01-7.800682072577e-09
    4.614477925813e-10 1.000000000000e+00 2.033000000000e+03 0.000000000000e+00
    3.400000000000e+00 0.000000000000e+00 2.328306436539e-09 8.500000000000e+01
    1.872060000000e+05 4.000000000000e+00
 7 18 12 25  6  0  0.0 6.423285230994e-05-7.048583938740e-12 0.000000000000e+00
    8.700000000000e+01-1.562500000000e+00 4.699838624286e-09 3.034697217834e-01
    5.587935447693e-09 1.212798885535e-02 9.356066584587e-06 5.153618995667e+03
    1.944000000000e+05 1.862645149231e-08 2.929267984409e+00 2.328306436539e-07
    9.569939424561e-01 1.986875000000e+02-2.480927113464e+00-8.121052560151e-09
   -6.443125524897e-10 1.000000000000e+00 2.033000000000e+03 0.000000000000e+00
    2.400000000000e+00 0.000000000000e+00-1.117587089539e-08 8.700000000000e+01
    1.872060000000e+05 4.000000000000e+00
